{
  "norad_id": 47536,
  "name": "YAOGAN-31 02C",
  "history": [
    {
      "epoch": "2026-03-28T22:07:58.792800Z",
      "apogee_km": 1215.4537977036798,
      "perigee_km": 962.6976083612753,
      "latitude_deg": 1.689399613371496e-05,
      "longitude_deg": -169.91306745056187,
      "height_km": 964.4535762691761,
      "semi_major_axis_km": 7467.212703032477,
      "eccentricity": 0.0169244,
      "inclination_deg": 63.4064,
      "raan_deg": 348.4176,
      "arg_perigee_deg": 0.3971,
      "mean_anomaly_deg": 359.716,
      "mean_motion_rev_day": 13.45441993
    },
    {
      "epoch": "2026-03-29T03:29:03.810336Z",
      "apogee_km": 1215.4484126246452,
      "perigee_km": 962.7026826399169,
      "latitude_deg": -3.894176308726035e-05,
      "longitude_deg": 109.02312445389688,
      "height_km": 964.4587115440908,
      "semi_major_axis_km": 7467.212547632281,
      "eccentricity": 0.0169237,
      "inclination_deg": 63.4064,
      "raan_deg": 347.8445,
      "arg_perigee_deg": 0.4019,
      "mean_anomaly_deg": 359.7113,
      "mean_motion_rev_day": 13.45442035
    },
    {
      "epoch": "2026-03-30T04:27:27.298368Z",
      "apogee_km": 1215.4920888245924,
      "perigee_km": 962.6553212365397,
      "latitude_deg": 1.5149653235117091e-05,
      "longitude_deg": 90.72607272501955,
      "height_km": 964.411496655072,
      "semi_major_axis_km": 7467.210705030566,
      "eccentricity": 0.0169298,
      "inclination_deg": 63.4065,
      "raan_deg": 345.1709,
      "arg_perigee_deg": 0.415,
      "mean_anomaly_deg": 359.6987,
      "mean_motion_rev_day": 13.45442533
    },
    {
      "epoch": "2026-03-30T06:14:28.965408Z",
      "apogee_km": 1215.4880518851824,
      "perigee_km": 962.658174175328,
      "latitude_deg": 3.0674863694970257e-06,
      "longitude_deg": 63.70486287889783,
      "height_km": 964.4143481422291,
      "semi_major_axis_km": 7467.210113030255,
      "eccentricity": 0.01692934,
      "inclination_deg": 63.4064,
      "raan_deg": 344.9799,
      "arg_perigee_deg": 0.4154,
      "mean_anomaly_deg": 359.6983,
      "mean_motion_rev_day": 13.45442693
    },
    {
      "epoch": "2026-03-30T15:09:37.355904Z",
      "apogee_km": 1215.5164388758149,
      "perigee_km": 962.6308379852371,
      "latitude_deg": 3.7690254786385356e-05,
      "longitude_deg": -71.4011700554001,
      "height_km": 964.3870424786022,
      "semi_major_axis_km": 7467.210638430525,
      "eccentricity": 0.01693307,
      "inclination_deg": 63.4066,
      "raan_deg": 344.0251,
      "arg_perigee_deg": 0.4172,
      "mean_anomaly_deg": 359.6966,
      "mean_motion_rev_day": 13.45442551
    },
    {
      "epoch": "2026-03-30T22:17:44.101824Z",
      "apogee_km": 1215.5383241962381,
      "perigee_km": 962.6105806660107,
      "latitude_deg": -4.7480000988158615e-06,
      "longitude_deg": -179.48633139342846,
      "height_km": 964.3668402687479,
      "semi_major_axis_km": 7467.211452431124,
      "eccentricity": 0.01693589,
      "inclination_deg": 63.4066,
      "raan_deg": 343.2611,
      "arg_perigee_deg": 0.4215,
      "mean_anomaly_deg": 359.6924,
      "mean_motion_rev_day": 13.45442331
    },
    {
      "epoch": "2026-03-31T21:29:05.853696Z",
      "apogee_km": 1215.5866791889102,
      "perigee_km": 962.5558468711797,
      "latitude_deg": -2.1404113853850047e-05,
      "longitude_deg": -170.76182496158745,
      "height_km": 964.3121032719192,
      "semi_major_axis_km": 7467.208263030045,
      "eccentricity": 0.0169428,
      "inclination_deg": 63.4065,
      "raan_deg": 340.7786,
      "arg_perigee_deg": 0.4219,
      "mean_anomaly_deg": 359.692,
      "mean_motion_rev_day": 13.45443193
    },
    {
      "epoch": "2026-04-01T20:40:27.635808Z",
      "apogee_km": 1215.6517266806359,
      "perigee_km": 962.4909621794241,
      "latitude_deg": 3.6780040277683285e-05,
      "longitude_deg": -162.0378077334183,
      "height_km": 964.2473541900408,
      "semi_major_axis_km": 7467.20834443003,
      "eccentricity": 0.0169515,
      "inclination_deg": 63.4064,
      "raan_deg": 338.2957,
      "arg_perigee_deg": 0.4348,
      "mean_anomaly_deg": 359.6796,
      "mean_motion_rev_day": 13.45443171
    },
    {
      "epoch": "2026-04-02T19:51:49.440384Z",
      "apogee_km": 1215.745281639257,
      "perigee_km": 962.4007668211834,
      "latitude_deg": -4.97269146424114e-05,
      "longitude_deg": -153.3138568793795,
      "height_km": 964.1572556197657,
      "semi_major_axis_km": 7467.2100242302195,
      "eccentricity": 0.0169638,
      "inclination_deg": 63.4062,
      "raan_deg": 335.8129,
      "arg_perigee_deg": 0.4433,
      "mean_anomaly_deg": 359.6713,
      "mean_motion_rev_day": 13.45442717
    },
    {
      "epoch": "2026-04-02T23:25:52.798656Z",
      "apogee_km": 1215.7597892327876,
      "perigee_km": 962.3887974291929,
      "latitude_deg": 4.2676616823764154e-05,
      "longitude_deg": 152.64358033633468,
      "height_km": 964.1452341573076,
      "semi_major_axis_km": 7467.21129333099,
      "eccentricity": 0.01696557,
      "inclination_deg": 63.4062,
      "raan_deg": 335.4308,
      "arg_perigee_deg": 0.4403,
      "mean_anomaly_deg": 359.6743,
      "mean_motion_rev_day": 13.45442374
    },
    {
      "epoch": "2026-04-03T20:50:12.861024Z",
      "apogee_km": 1215.8132157329292,
      "perigee_km": 962.3283927274097,
      "latitude_deg": -5.3544428319015144e-05,
      "longitude_deg": -171.61095647274433,
      "height_km": 964.0849296404921,
      "semi_major_axis_km": 7467.207804230169,
      "eccentricity": 0.0169732,
      "inclination_deg": 63.4059,
      "raan_deg": 333.139,
      "arg_perigee_deg": 0.4492,
      "mean_anomaly_deg": 359.6656,
      "mean_motion_rev_day": 13.45443317
    },
    {
      "epoch": "2026-04-04T05:45:21.190176Z",
      "apogee_km": 1215.8313640915758,
      "perigee_km": 962.3062853714555,
      "latitude_deg": 9.26318570476949e-06,
      "longitude_deg": 53.282980262536235,
      "height_km": 964.0628468083903,
      "semi_major_axis_km": 7467.205824731515,
      "eccentricity": 0.0169759,
      "inclination_deg": 63.4057,
      "raan_deg": 332.1839,
      "arg_perigee_deg": 0.4531,
      "mean_anomaly_deg": 359.6619,
      "mean_motion_rev_day": 13.45443852
    },
    {
      "epoch": "2026-04-05T15:38:52.929600Z",
      "apogee_km": 1215.9270940164652,
      "perigee_km": 962.2049758548155,
      "latitude_deg": -7.931346623514685e-06,
      "longitude_deg": -100.11997892596058,
      "height_km": 963.9616642935074,
      "semi_major_axis_km": 7467.20303493564,
      "eccentricity": 0.0169891,
      "inclination_deg": 63.4053,
      "raan_deg": 328.5551,
      "arg_perigee_deg": 0.4653,
      "mean_anomaly_deg": 359.6501,
      "mean_motion_rev_day": 13.45444606
    },
    {
      "epoch": "2026-04-05T20:59:58.015392Z",
      "apogee_km": 1215.9377922545982,
      "perigee_km": 962.2050372054391,
      "latitude_deg": -2.021164649656449e-06,
      "longitude_deg": 178.81575810706178,
      "height_km": 963.9617124211926,
      "semi_major_axis_km": 7467.208414730018,
      "eccentricity": 0.0169898,
      "inclination_deg": 63.4052,
      "raan_deg": 327.9818,
      "arg_perigee_deg": 0.4651,
      "mean_anomaly_deg": 359.6503,
      "mean_motion_rev_day": 13.45443152
    },
    {
      "epoch": "2026-04-06T05:55:06.346272Z",
      "apogee_km": 1215.934883140233,
      "perigee_km": 962.2058965204496,
      "latitude_deg": 3.2541811806302412e-06,
      "longitude_deg": 43.70975837262065,
      "height_km": 963.9626419533967,
      "semi_major_axis_km": 7467.2073898303415,
      "eccentricity": 0.01698955,
      "inclination_deg": 63.4051,
      "raan_deg": 327.0268,
      "arg_perigee_deg": 0.4709,
      "mean_anomaly_deg": 359.6447,
      "mean_motion_rev_day": 13.45443429
    },
    {
      "epoch": "2026-04-06T14:50:14.659872Z",
      "apogee_km": 1215.9667252144009,
      "perigee_km": 962.1660402555681,
      "latitude_deg": -2.7646919691291923e-05,
      "longitude_deg": -91.3960872681157,
      "height_km": 963.9227605682169,
      "semi_major_axis_km": 7467.203382734984,
      "eccentricity": 0.01699436,
      "inclination_deg": 63.4051,
      "raan_deg": 326.0719,
      "arg_perigee_deg": 0.4688,
      "mean_anomaly_deg": 359.6467,
      "mean_motion_rev_day": 13.45444512
    },
    {
      "epoch": "2026-04-08T15:00:01.344384Z",
      "apogee_km": 1216.0917853685569,
      "perigee_km": 962.1246523343407,
      "latitude_deg": 3.669869538518864e-05,
      "longitude_deg": -100.97596263877811,
      "height_km": 963.8817054821388,
      "semi_major_axis_km": 7467.245218851449,
      "eccentricity": 0.01700541,
      "inclination_deg": 63.4047,
      "raan_deg": 320.9145,
      "arg_perigee_deg": 0.4963,
      "mean_anomaly_deg": 359.6202,
      "mean_motion_rev_day": 13.45433205
    },
    {
      "epoch": "2026-04-09T21:19:30.239616Z",
      "apogee_km": 1216.1054639906042,
      "perigee_km": 962.0249482841327,
      "latitude_deg": 1.8546123271852136e-05,
      "longitude_deg": 159.66063688461506,
      "height_km": 963.781794563583,
      "semi_major_axis_km": 7467.202206137368,
      "eccentricity": 0.0170131,
      "inclination_deg": 63.4046,
      "raan_deg": 317.6669,
      "arg_perigee_deg": 0.4818,
      "mean_anomaly_deg": 359.6342,
      "mean_motion_rev_day": 13.4544483
    },
    {
      "epoch": "2026-04-10T06:14:38.548032Z",
      "apogee_km": 1216.125333928493,
      "perigee_km": 962.0040645485842,
      "latitude_deg": -4.597621296474648e-05,
      "longitude_deg": 24.554896135026322,
      "height_km": 963.760947622492,
      "semi_major_axis_km": 7467.201699238538,
      "eccentricity": 0.01701583,
      "inclination_deg": 63.4046,
      "raan_deg": 316.7121,
      "arg_perigee_deg": 0.4838,
      "mean_anomaly_deg": 359.6322,
      "mean_motion_rev_day": 13.45444967
    }
  ]
}